start=new Date('2022-03-18T00:00:00.000Z').valueOf();
sats=[{"PERIAPSIS":"569.657","ECCENTRICITY":"0.00032670","BSTAR":"-0.00331290000000","ARG_OF_PERICENTER":"282.6956","COUNTRY_CODE":"US","RA_OF_ASC_NODE":"357.4107","MEAN_ANOMALY":"317.4225","FILE":"3363151","OBJECT_NAME":"STARLINK-3100","MEAN_MOTION_DDOT":"0.0000000000000","SITE":"AFWTR","NORAD_CAT_ID":"49144","SEMIMAJOR_AXIS":"6950.063","APOAPSIS":"574.199","PERIOD":"96.104","EPHEMERIS_TYPE":"0","REV_AT_EPOCH":"358","EPOCH":"2022-03-17T22:00:00.999936","MEAN_MOTION_DOT":"-0.00039444","GP_ID":"198993102","OBJECT_TYPE":"PAYLOAD","CENTER_NAME":"EARTH","OBJECT_ID":"2021-082Q","DECAY_DATE":null,"CLASSIFICATION_TYPE":"U","MEAN_ELEMENT_THEORY":"SGP4","MEAN_MOTION":"14.98371991","INCLINATION":"70.0042","REF_FRAME":"TEME","TLE_LINE1":"1 49144U 21082Q   22076.91667824 -.00039444  00000-0 -33129-2 0  9991","ELEMENT_SET_NO":"999","LAUNCH_DATE":"2021-09-14","TLE_LINE2":"2 49144  70.0042 357.4107 0003267 282.6956 317.4225 14.98371991  3582","TIME_SYSTEM":"UTC","RCS_SIZE":"LARGE"},{"OBJECT_TYPE":"PAYLOAD","CENTER_NAME":"EARTH","OBJECT_ID":"2021-082R","DECAY_DATE":null,"CLASSIFICATION_TYPE":"U","MEAN_ELEMENT_THEORY":"SGP4","MEAN_MOTION":"15.69807523","INCLINATION":"69.9997","TLE_LINE1":"1 49145U 21082R   22076.91667824 -.00091301  00000-0 -76936-3 0  9996","REF_FRAME":"TEME","ELEMENT_SET_NO":"999","LAUNCH_DATE":"2021-09-14","TLE_LINE2":"2 49145  69.9997 327.4264 0004137 254.0446  82.1044 15.69807523  3695","TIME_SYSTEM":"UTC","RCS_SIZE":"LARGE","PERIAPSIS":"356.662","BSTAR":"-0.00076936000000","ECCENTRICITY":"0.00041370","ARG_OF_PERICENTER":"254.0446","COUNTRY_CODE":"US","RA_OF_ASC_NODE":"327.4264","MEAN_ANOMALY":"82.1044","FILE":"3363151","OBJECT_NAME":"STARLINK-3119","MEAN_MOTION_DDOT":"0.0000000000000","SITE":"AFWTR","NORAD_CAT_ID":"49145","SEMIMAJOR_AXIS":"6737.585","APOAPSIS":"362.237","PERIOD":"91.731","EPHEMERIS_TYPE":"0","REV_AT_EPOCH":"369","EPOCH":"2022-03-17T22:00:00.999936","MEAN_MOTION_DOT":"-0.00091301","GP_ID":"198993352"},{"REF_FRAME":"TEME","TLE_LINE1":"1 49146U 21082S   22076.91667824 -.00027000  00000-0 -23589-2 0  9997","ELEMENT_SET_NO":"999","INCLINATION":"70.0002","MEAN_MOTION":"14.96733923","RCS_SIZE":"LARGE","TIME_SYSTEM":"UTC","LAUNCH_DATE":"2021-09-14","TLE_LINE2":"2 49146  70.0002 336.3999 0003339 280.5038 354.1055 14.96733923  3600","CENTER_NAME":"EARTH","OBJECT_TYPE":"PAYLOAD","CLASSIFICATION_TYPE":"U","MEAN_ELEMENT_THEORY":"SGP4","OBJECT_ID":"2021-082S","DECAY_DATE":null,"EPHEMERIS_TYPE":"0","PERIOD":"96.209","APOAPSIS":"579.320","NORAD_CAT_ID":"49146","SEMIMAJOR_AXIS":"6955.133","GP_ID":"198994604","EPOCH":"2022-03-17T22:00:00.999936","MEAN_MOTION_DOT":"-0.00027000","REV_AT_EPOCH":"360","MEAN_ANOMALY":"354.1055","FILE":"3363151","ARG_OF_PERICENTER":"280.5038","COUNTRY_CODE":"US","RA_OF_ASC_NODE":"336.3999","PERIAPSIS":"574.676","BSTAR":"-0.00235890000000","ECCENTRICITY":"0.00033390","SITE":"AFWTR","OBJECT_NAME":"STARLINK-3116","MEAN_MOTION_DDOT":"0.0000000000000"},{"ELEMENT_SET_NO":"999","TLE_LINE1":"1 49147U 21082T   22076.91667824  .00004990  00000-0  43504-4 0  9990","REF_FRAME":"TEME","INCLINATION":"69.9995","MEAN_MOTION":"15.69774613","RCS_SIZE":"LARGE","TIME_SYSTEM":"UTC","TLE_LINE2":"2 49147  69.9995 327.4329 0003678 256.4828  73.2003 15.69774613  3695","LAUNCH_DATE":"2021-09-14","CENTER_NAME":"EARTH","OBJECT_TYPE":"PAYLOAD","MEAN_ELEMENT_THEORY":"SGP4","CLASSIFICATION_TYPE":"U","OBJECT_ID":"2021-082T","DECAY_DATE":null,"EPHEMERIS_TYPE":"0","PERIOD":"91.733","APOAPSIS":"362.022","SEMIMAJOR_AXIS":"6737.679","NORAD_CAT_ID":"49147","GP_ID":"198994354","MEAN_MOTION_DOT":"0.00004990","EPOCH":"2022-03-17T22:00:00.999936","REV_AT_EPOCH":"369","FILE":"3363151","MEAN_ANOMALY":"73.2003","ARG_OF_PERICENTER":"256.4828","COUNTRY_CODE":"US","RA_OF_ASC_NODE":"327.4329","BSTAR":"0.00004350400000","ECCENTRICITY":"0.00036780","PERIAPSIS":"357.066","SITE":"AFWTR","MEAN_MOTION_DDOT":"0.0000000000000","OBJECT_NAME":"STARLINK-3071"},{"SITE":"AFWTR","MEAN_MOTION_DDOT":"0.0000000000000","OBJECT_NAME":"STARLINK-3048","FILE":"3363151","MEAN_ANOMALY":"19.4812","RA_OF_ASC_NODE":"336.3977","COUNTRY_CODE":"US","ARG_OF_PERICENTER":"281.3552","ECCENTRICITY":"0.00034040","BSTAR":"-0.00235480000000","PERIAPSIS":"574.675","GP_ID":"198993603","MEAN_MOTION_DOT":"-0.00026944","EPOCH":"2022-03-17T22:00:00.999936","REV_AT_EPOCH":"360","EPHEMERIS_TYPE":"0","PERIOD":"96.210","APOAPSIS":"579.410","SEMIMAJOR_AXIS":"6955.177","NORAD_CAT_ID":"49148","MEAN_ELEMENT_THEORY":"SGP4","CLASSIFICATION_TYPE":"U","DECAY_DATE":null,"OBJECT_ID":"2021-082U","CENTER_NAME":"EARTH","OBJECT_TYPE":"PAYLOAD","RCS_SIZE":"LARGE","TIME_SYSTEM":"UTC","TLE_LINE2":"2 49148  69.9988 336.3977 0003404 281.3552  19.4812 14.96719705  3605","LAUNCH_DATE":"2021-09-14","ELEMENT_SET_NO":"999","TLE_LINE1":"1 49148U 21082U   22076.91667824 -.00026944  00000-0 -23548-2 0  9990","REF_FRAME":"TEME","MEAN_MOTION":"14.96719705","INCLINATION":"69.9988"},{"MEAN_MOTION":"14.98365293","INCLINATION":"70.0031","ELEMENT_SET_NO":"999","TLE_LINE1":"1 49149U 21082V   22076.91667824 -.00039832  00000-0 -33463-2 0  9998","REF_FRAME":"TEME","TIME_SYSTEM":"UTC","RCS_SIZE":"LARGE","TLE_LINE2":"2 49149  70.0031 357.4035 0003463 286.2163 339.5764 14.98365293  3584","LAUNCH_DATE":"2021-09-14","CENTER_NAME":"EARTH","OBJECT_TYPE":"PAYLOAD","MEAN_ELEMENT_THEORY":"SGP4","CLASSIFICATION_TYPE":"U","OBJECT_ID":"2021-082V","DECAY_DATE":null,"PERIOD":"96.105","EPHEMERIS_TYPE":"0","SEMIMAJOR_AXIS":"6950.084","NORAD_CAT_ID":"49149","APOAPSIS":"574.356","MEAN_MOTION_DOT":"-0.00039832","EPOCH":"2022-03-17T22:00:00.999936","GP_ID":"198993853","REV_AT_EPOCH":"358","ARG_OF_PERICENTER":"286.2163","COUNTRY_CODE":"US","RA_OF_ASC_NODE":"357.4035","FILE":"3363151","MEAN_ANOMALY":"339.5764","BSTAR":"-0.00334630000000","ECCENTRICITY":"0.00034630","PERIAPSIS":"569.542","SITE":"AFWTR","MEAN_MOTION_DDOT":"0.0000000000000","OBJECT_NAME":"STARLINK-3053"},{"NORAD_CAT_ID":"49150","SEMIMAJOR_AXIS":"6950.122","APOAPSIS":"574.395","PERIOD":"96.106","EPHEMERIS_TYPE":"0","REV_AT_EPOCH":"358","EPOCH":"2022-03-17T22:00:00.999936","MEAN_MOTION_DOT":"-0.00039133","GP_ID":"198994104","PERIAPSIS":"569.579","BSTAR":"-0.00328810000000","ECCENTRICITY":"0.00034650","RA_OF_ASC_NODE":"357.4004","COUNTRY_CODE":"US","ARG_OF_PERICENTER":"287.7303","MEAN_ANOMALY":"3.7177","FILE":"3363151","OBJECT_NAME":"STARLINK-3104","MEAN_MOTION_DDOT":"0.0000000000000","SITE":"AFWTR","INCLINATION":"70.0023","MEAN_MOTION":"14.98352999","TLE_LINE1":"1 49150U 21082W   22076.91667824 -.00039133  00000-0 -32881-2 0  9997","REF_FRAME":"TEME","ELEMENT_SET_NO":"999","LAUNCH_DATE":"2021-09-14","TLE_LINE2":"2 49150  70.0023 357.4004 0003465 287.7303   3.7177 14.98352999  3584","TIME_SYSTEM":"UTC","RCS_SIZE":"LARGE","OBJECT_TYPE":"PAYLOAD","CENTER_NAME":"EARTH","OBJECT_ID":"2021-082W","DECAY_DATE":null,"CLASSIFICATION_TYPE":"U","MEAN_ELEMENT_THEORY":"SGP4"},{"REV_AT_EPOCH":"369","EPOCH":"2022-03-17T22:00:00.999936","MEAN_MOTION_DOT":"0.00002289","GP_ID":"198994855","NORAD_CAT_ID":"49151","SEMIMAJOR_AXIS":"6737.689","APOAPSIS":"361.888","PERIOD":"91.733","EPHEMERIS_TYPE":"0","OBJECT_NAME":"STARLINK-3102","MEAN_MOTION_DDOT":"0.0000000000000","SITE":"AFWTR","PERIAPSIS":"357.220","BSTAR":"0.00002092600000","ECCENTRICITY":"0.00034640","RA_OF_ASC_NODE":"327.4134","COUNTRY_CODE":"US","ARG_OF_PERICENTER":"255.4736","MEAN_ANOMALY":"86.9991","FILE":"3363151","LAUNCH_DATE":"2021-09-14","TLE_LINE2":"2 49151  70.0001 327.4134 0003464 255.4736  86.9991 15.69770930  3690","TIME_SYSTEM":"UTC","RCS_SIZE":"LARGE","MEAN_MOTION":"15.69770930","INCLINATION":"70.0001","REF_FRAME":"TEME","TLE_LINE1":"1 49151U 21082X   22076.91667824  .00002289  00000-0  20926-4 0  9997","ELEMENT_SET_NO":"999","OBJECT_ID":"2021-082X","DECAY_DATE":null,"CLASSIFICATION_TYPE":"U","MEAN_ELEMENT_THEORY":"SGP4","OBJECT_TYPE":"PAYLOAD","CENTER_NAME":"EARTH"},{"OBJECT_TYPE":"PAYLOAD","CENTER_NAME":"EARTH","OBJECT_ID":"2021-082Y","DECAY_DATE":null,"CLASSIFICATION_TYPE":"U","MEAN_ELEMENT_THEORY":"SGP4","REF_FRAME":"TEME","TLE_LINE1":"1 49152U 21082Y   22076.91667824  .00004126  00000-0  36293-4 0  9994","ELEMENT_SET_NO":"999","MEAN_MOTION":"15.69769267","INCLINATION":"70.0000","LAUNCH_DATE":"2021-09-14","TLE_LINE2":"2 49152  70.0000 327.4039 0003528 254.0974  96.8434 15.69769267  3697","RCS_SIZE":"LARGE","TIME_SYSTEM":"UTC","PERIAPSIS":"357.182","ECCENTRICITY":"0.00035280","BSTAR":"0.00003629300000","MEAN_ANOMALY":"96.8434","FILE":"3363151","COUNTRY_CODE":"US","ARG_OF_PERICENTER":"254.0974","RA_OF_ASC_NODE":"327.4039","OBJECT_NAME":"STARLINK-3081","MEAN_MOTION_DDOT":"0.0000000000000","SITE":"AFWTR","APOAPSIS":"361.936","SEMIMAJOR_AXIS":"6737.694","NORAD_CAT_ID":"49152","EPHEMERIS_TYPE":"0","PERIOD":"91.733","REV_AT_EPOCH":"369","GP_ID":"198993103","EPOCH":"2022-03-17T22:00:00.999936","MEAN_MOTION_DOT":"0.00004126"},{"EPHEMERIS_TYPE":"0","PERIOD":"91.731","APOAPSIS":"361.913","SEMIMAJOR_AXIS":"6737.594","NORAD_CAT_ID":"49153","GP_ID":"198993353","EPOCH":"2022-03-17T22:00:00.999936","MEAN_MOTION_DOT":"-0.00010236","REV_AT_EPOCH":"369","MEAN_ANOMALY":"92.6422","FILE":"3363151","COUNTRY_CODE":"US","ARG_OF_PERICENTER":"254.0154","RA_OF_ASC_NODE":"327.4067","PERIAPSIS":"357.006","ECCENTRICITY":"0.00036410","BSTAR":"-0.00008387000000","SITE":"AFWTR","OBJECT_NAME":"STARLINK-3072","MEAN_MOTION_DDOT":"0.0000000000000","TLE_LINE1":"1 49153U 21082Z   22076.91667824 -.00010236  00000-0 -83870-4 0  9999","REF_FRAME":"TEME","ELEMENT_SET_NO":"999","MEAN_MOTION":"15.69804115","INCLINATION":"70.0004","RCS_SIZE":"LARGE","TIME_SYSTEM":"UTC","LAUNCH_DATE":"2021-09-14","TLE_LINE2":"2 49153  70.0004 327.4067 0003641 254.0154  92.6422 15.69804115  3692","CENTER_NAME":"EARTH","OBJECT_TYPE":"PAYLOAD","CLASSIFICATION_TYPE":"U","MEAN_ELEMENT_THEORY":"SGP4","OBJECT_ID":"2021-082Z","DECAY_DATE":null}];
